{
  "type": "FeatureCollection",
  "features": [
    {
      "type": "Feature",
      "properties": {
        "norad_id": 38833,
        "name": "GPS BIIF-3  (PRN 24)",
        "group": "gps-ops",
        "lat": -34.01796420905734,
        "lon": 1.1954211022619676,
        "alt_km": 20624.026789201063,
        "timestamp": "2025-12-11T15:53:39.801235+00:00",
        "meta_object_name": "GPS BIIF-3  (PRN 24)",
        "meta_object_id": "2012-053A",
        "meta_epoch": "2025-12-09T20:38:00.572640",
        "meta_mean_motion": 2.00564945,
        "meta_eccentricity": 0.0175755,
        "meta_inclination": 53.5569,
        "meta_ra_of_asc_node": 151.3565,
        "meta_arg_of_pericenter": 63.953,
        "meta_mean_anomaly": 297.8432,
        "meta_ephemeris_type": 0,
        "meta_classification_type": "U",
        "meta_norad_cat_id": 38833,
        "meta_element_set_no": 999,
        "meta_rev_at_epoch": 9564,
        "meta_bstar": 0,
        "meta_mean_motion_dot": 6.8e-07,
        "meta_mean_motion_ddot": 0,
        "tle_line1": "1 38833U 12053A   25343.85972885  .00000068  00000+0  00000+0 0  9997",
        "tle_line2": "2 38833  53.5569 151.3565 0175755  63.9530 297.8432  2.00564945 95646"
      },
      "geometry": {
        "type": "Point",
        "coordinates": [
          1.1954211022619676,
          -34.01796420905734
        ]
      }
    },
    {
      "type": "Feature",
      "properties": {
        "norad_id": 39166,
        "name": "GPS BIIF-4  (PRN 27)",
        "group": "gps-ops",
        "lat": -32.101603628425025,
        "lon": -109.80377630021539,
        "alt_km": 20176.088013272707,
        "timestamp": "2025-12-11T15:53:39.801246+00:00",
        "meta_object_name": "GPS BIIF-4  (PRN 27)",
        "meta_object_id": "2013-023A",
        "meta_epoch": "2025-12-10T05:20:05.649504",
        "meta_mean_motion": 2.00565116,
        "meta_eccentricity": 0.0137742,
        "meta_inclination": 54.6542,
        "meta_ra_of_asc_node": 276.6706,
        "meta_arg_of_pericenter": 48.5869,
        "meta_mean_anomaly": 312.6037,
        "meta_ephemeris_type": 0,
        "meta_classification_type": "U",
        "meta_norad_cat_id": 39166,
        "meta_element_set_no": 999,
        "meta_rev_at_epoch": 9209,
        "meta_bstar": 0,
        "meta_mean_motion_dot": -5.9e-07,
        "meta_mean_motion_ddot": 0,
        "tle_line1": "1 39166U 13023A   25344.22228761 -.00000059  00000+0  00000+0 0  9995",
        "tle_line2": "2 39166  54.6542 276.6706 0137742  48.5869 312.6037  2.00565116 92099"
      },
      "geometry": {
        "type": "Point",
        "coordinates": [
          -109.80377630021539,
          -32.101603628425025
        ]
      }
    },
    {
      "type": "Feature",
      "properties": {
        "norad_id": 39533,
        "name": "GPS BIIF-5  (PRN 30)",
        "group": "gps-ops",
        "lat": -28.026768283337443,
        "lon": 133.8614579274125,
        "alt_km": 20211.70769307431,
        "timestamp": "2025-12-11T15:53:39.801258+00:00",
        "meta_object_name": "GPS BIIF-5  (PRN 30)",
        "meta_object_id": "2014-008A",
        "meta_epoch": "2025-12-10T17:09:32.568192",
        "meta_mean_motion": 2.00574305,
        "meta_eccentricity": 0.0079159,
        "meta_inclination": 53.631,
        "meta_ra_of_asc_node": 157.0072,
        "meta_arg_of_pericenter": 226.4701,
        "meta_mean_anomaly": 132.8778,
        "meta_ephemeris_type": 0,
        "meta_classification_type": "U",
        "meta_norad_cat_id": 39533,
        "meta_element_set_no": 999,
        "meta_rev_at_epoch": 8590,
        "meta_bstar": 0,
        "meta_mean_motion_dot": 7.7e-07,
        "meta_mean_motion_ddot": 0,
        "tle_line1": "1 39533U 14008A   25344.71496028  .00000077  00000+0  00000+0 0  9993",
        "tle_line2": "2 39533  53.6310 157.0072 0079159 226.4701 132.8778  2.00574305 85902"
      },
      "geometry": {
        "type": "Point",
        "coordinates": [
          133.8614579274125,
          -28.026768283337443
        ]
      }
    },
    {
      "type": "Feature",
      "properties": {
        "norad_id": 39741,
        "name": "GPS BIIF-6  (PRN 06)",
        "group": "gps-ops",
        "lat": 46.6144927842396,
        "lon": 114.51241154875483,
        "alt_km": 20275.08685317376,
        "timestamp": "2025-12-11T15:53:39.801269+00:00",
        "meta_object_name": "GPS BIIF-6  (PRN 06)",
        "meta_object_id": "2014-026A",
        "meta_epoch": "2025-12-10T23:57:15.344928",
        "meta_mean_motion": 2.00561443,
        "meta_eccentricity": 0.00391394,
        "meta_inclination": 56.5843,
        "meta_ra_of_asc_node": 338.8441,
        "meta_arg_of_pericenter": 318.5788,
        "meta_mean_anomaly": 41.1365,
        "meta_ephemeris_type": 0,
        "meta_classification_type": "U",
        "meta_norad_cat_id": 39741,
        "meta_element_set_no": 999,
        "meta_rev_at_epoch": 8476,
        "meta_bstar": 0,
        "meta_mean_motion_dot": -8.5e-07,
        "meta_mean_motion_ddot": 0,
        "tle_line1": "1 39741U 14026A   25344.99809427 -.00000085  00000+0  00000+0 0  9995",
        "tle_line2": "2 39741  56.5843 338.8441 0039139 318.5788  41.1365  2.00561443 84763"
      },
      "geometry": {
        "type": "Point",
        "coordinates": [
          114.51241154875483,
          46.6144927842396
        ]
      }
    },
    {
      "type": "Feature",
      "properties": {
        "norad_id": 40105,
        "name": "GPS BIIF-7  (PRN 09)",
        "group": "gps-ops",
        "lat": 43.11669239832804,
        "lon": 136.4628482184684,
        "alt_km": 20137.322228297213,
        "timestamp": "2025-12-11T15:53:39.801280+00:00",
        "meta_object_name": "GPS BIIF-7  (PRN 09)",
        "meta_object_id": "2014-045A",
        "meta_epoch": "2025-12-10T14:05:32.873856",
        "meta_mean_motion": 2.00572371,
        "meta_eccentricity": 0.00327329,
        "meta_inclination": 55.2279,
        "meta_ra_of_asc_node": 95.9848,
        "meta_arg_of_pericenter": 119.8162,
        "meta_mean_anomaly": 240.4986,
        "meta_ephemeris_type": 0,
        "meta_classification_type": "U",
        "meta_norad_cat_id": 40105,
        "meta_element_set_no": 999,
        "meta_rev_at_epoch": 8229,
        "meta_bstar": 0,
        "meta_mean_motion_dot": 0,
        "meta_mean_motion_ddot": 0,
        "tle_line1": "1 40105U 14045A   25344.58718604  .00000000  00000+0  00000+0 0  9999",
        "tle_line2": "2 40105  55.2279  95.9848 0032732 119.8162 240.4986  2.00572371 82291"
      },
      "geometry": {
        "type": "Point",
        "coordinates": [
          136.4628482184684,
          43.11669239832804
        ]
      }
    },
    {
      "type": "Feature",
      "properties": {
        "norad_id": 40294,
        "name": "GPS BIIF-8  (PRN 03)",
        "group": "gps-ops",
        "lat": 27.98945245198207,
        "lon": -162.09943540554121,
        "alt_km": 20140.651999671012,
        "timestamp": "2025-12-11T15:53:39.801291+00:00",
        "meta_object_name": "GPS BIIF-8  (PRN 03)",
        "meta_object_id": "2014-068A",
        "meta_epoch": "2025-12-10T11:09:30.250944",
        "meta_mean_motion": 2.00564629,
        "meta_eccentricity": 0.0060788,
        "meta_inclination": 56.8561,
        "meta_ra_of_asc_node": 38.234,
        "meta_arg_of_pericenter": 69.2281,
        "meta_mean_anomaly": 291.4749,
        "meta_ephemeris_type": 0,
        "meta_classification_type": "U",
        "meta_norad_cat_id": 40294,
        "meta_element_set_no": 999,
        "meta_rev_at_epoch": 8142,
        "meta_bstar": 0,
        "meta_mean_motion_dot": -8.9e-07,
        "meta_mean_motion_ddot": 0,
        "tle_line1": "1 40294U 14068A   25344.46493346 -.00000089  00000+0  00000+0 0  9991",
        "tle_line2": "2 40294  56.8561  38.2340 0060788  69.2281 291.4749  2.00564629 81424"
      },
      "geometry": {
        "type": "Point",
        "coordinates": [
          -162.09943540554121,
          27.98945245198207
        ]
      }
    },
    {
      "type": "Feature",
      "properties": {
        "norad_id": 40534,
        "name": "GPS BIIF-9  (PRN 26)",
        "group": "gps-ops",
        "lat": 38.94938465175577,
        "lon": -110.83637959913632,
        "alt_km": 19900.52348178224,
        "timestamp": "2025-12-11T15:53:39.801302+00:00",
        "meta_object_name": "GPS BIIF-9  (PRN 26)",
        "meta_object_id": "2015-013A",
        "meta_epoch": "2025-12-10T02:18:43.739712",
        "meta_mean_motion": 2.0056274,
        "meta_eccentricity": 0.010694,
        "meta_inclination": 53.1981,
        "meta_ra_of_asc_node": 211.9997,
        "meta_arg_of_pericenter": 38.4152,
        "meta_mean_anomaly": 322.4192,
        "meta_ephemeris_type": 0,
        "meta_classification_type": "U",
        "meta_norad_cat_id": 40534,
        "meta_element_set_no": 999,
        "meta_rev_at_epoch": 7803,
        "meta_bstar": 0,
        "meta_mean_motion_dot": 1.5e-07,
        "meta_mean_motion_ddot": 0,
        "tle_line1": "1 40534U 15013A   25344.09633958  .00000015  00000+0  00000+0 0  9991",
        "tle_line2": "2 40534  53.1981 211.9997 0106940  38.4152 322.4192  2.00562740 78033"
      },
      "geometry": {
        "type": "Point",
        "coordinates": [
          -110.83637959913632,
          38.94938465175577
        ]
      }
    }
  ]
}